{
  "type": "FeatureCollection",
  "features": [
    {
      "type": "Feature",
      "properties": {
        "norad_id": 37781,
        "name": "HAIYANG-2A",
        "group": "resource",
        "lat": 62.839751703764584,
        "lon": -177.91883733045452,
        "alt_km": 960.7348628271457,
        "timestamp": "2025-12-08T08:59:00.428902+00:00",
        "meta_object_name": "HAIYANG-2A",
        "meta_object_id": "2011-043A",
        "meta_epoch": "2025-12-07T23:43:02.716896",
        "meta_mean_motion": 13.78834683,
        "meta_eccentricity": 0.00016614,
        "meta_inclination": 99.3378,
        "meta_ra_of_asc_node": 342.996,
        "meta_arg_of_pericenter": 90.9225,
        "meta_mean_anomaly": 269.2117,
        "meta_ephemeris_type": 0,
        "meta_classification_type": "U",
        "meta_norad_cat_id": 37781,
        "meta_element_set_no": 999,
        "meta_rev_at_epoch": 72033,
        "meta_bstar": 4.0967851e-05,
        "meta_mean_motion_dot": -2e-08,
        "meta_mean_motion_ddot": 0,
        "tle_line1": "1 37781U 11043A   25341.98822589 -.00000002  00000+0  40968-4 0  9994",
        "tle_line2": "2 37781  99.3378 342.9960 0001661  90.9225 269.2117 13.78834683720335"
      },
      "geometry": {
        "type": "Point",
        "coordinates": [
          -177.91883733045452,
          62.839751703764584
        ]
      }
    },
    {
      "type": "Feature",
      "properties": {
        "norad_id": 37791,
        "name": "RASAT",
        "group": "resource",
        "lat": -80.6778825658828,
        "lon": 131.4471274636539,
        "alt_km": 689.9412495787847,
        "timestamp": "2025-12-08T08:59:00.428912+00:00",
        "meta_object_name": "RASAT",
        "meta_object_id": "2011-044D",
        "meta_epoch": "2025-12-07T22:25:48.037728",
        "meta_mean_motion": 14.67898745,
        "meta_eccentricity": 0.0021926,
        "meta_inclination": 98.0655,
        "meta_ra_of_asc_node": 71.2638,
        "meta_arg_of_pericenter": 79.5797,
        "meta_mean_anomaly": 32.8685,
        "meta_ephemeris_type": 0,
        "meta_classification_type": "U",
        "meta_norad_cat_id": 37791,
        "meta_element_set_no": 999,
        "meta_rev_at_epoch": 76512,
        "meta_bstar": 0.00019612903,
        "meta_mean_motion_dot": 1.076e-05,
        "meta_mean_motion_ddot": 0,
        "tle_line1": "1 37791U 11044D   25341.93458377  .00001076  00000+0  19613-3 0  9994",
        "tle_line2": "2 37791  98.0655  71.2638 0021926  79.5797  32.8685 14.67898745765125"
      },
      "geometry": {
        "type": "Point",
        "coordinates": [
          131.4471274636539,
          -80.6778825658828
        ]
      }
    },
    {
      "type": "Feature",
      "properties": {
        "norad_id": 37841,
        "name": "SRMSAT",
        "group": "resource",
        "lat": 5.500200789247369,
        "lon": -61.00111594071576,
        "alt_km": 852.780164311941,
        "timestamp": "2025-12-08T08:59:00.428928+00:00",
        "meta_object_name": "SRMSAT",
        "meta_object_id": "2011-058D",
        "meta_epoch": "2025-12-07T18:46:13.846944",
        "meta_mean_motion": 14.11509005,
        "meta_eccentricity": 0.0011708,
        "meta_inclination": 19.97,
        "meta_ra_of_asc_node": 137.9568,
        "meta_arg_of_pericenter": 258.3693,
        "meta_mean_anomaly": 129.6511,
        "meta_ephemeris_type": 0,
        "meta_classification_type": "U",
        "meta_norad_cat_id": 37841,
        "meta_element_set_no": 999,
        "meta_rev_at_epoch": 73074,
        "meta_bstar": 0.00015480785,
        "meta_mean_motion_dot": 5.5e-06,
        "meta_mean_motion_ddot": 0,
        "tle_line1": "1 37841U 11058D   25341.78210471  .00000550  00000+0  15481-3 0  9994",
        "tle_line2": "2 37841  19.9700 137.9568 0011708 258.3693 129.6511 14.11509005730745"
      },
      "geometry": {
        "type": "Point",
        "coordinates": [
          -61.00111594071576,
          5.500200789247369
        ]
      }
    },
    {
      "type": "Feature",
      "properties": {
        "norad_id": 38012,
        "name": "PLEIADES 1A",
        "group": "resource",
        "lat": -36.21973040092275,
        "lon": -130.83943545145647,
        "alt_km": 704.8762783917546,
        "timestamp": "2025-12-08T08:59:00.428939+00:00",
        "meta_object_name": "PLEIADES 1A",
        "meta_object_id": "2011-076F",
        "meta_epoch": "2025-12-07T22:54:35.140032",
        "meta_mean_motion": 14.58554092,
        "meta_eccentricity": 0.00013309,
        "meta_inclination": 98.183,
        "meta_ra_of_asc_node": 54.797,
        "meta_arg_of_pericenter": 78.81,
        "meta_mean_anomaly": 95.0833,
        "meta_ephemeris_type": 0,
        "meta_classification_type": "U",
        "meta_norad_cat_id": 38012,
        "meta_element_set_no": 999,
        "meta_rev_at_epoch": 74411,
        "meta_bstar": 0.00016433514,
        "meta_mean_motion_dot": 7.18e-06,
        "meta_mean_motion_ddot": 0,
        "tle_line1": "1 38012U 11076F   25341.95457338  .00000718  00000+0  16434-3 0  9994",
        "tle_line2": "2 38012  98.1830  54.7970 0001330  78.8100  95.0833 14.58554092744116"
      },
      "geometry": {
        "type": "Point",
        "coordinates": [
          -130.83943545145647,
          -36.21973040092275
        ]
      }
    },
    {
      "type": "Feature",
      "properties": {
        "norad_id": 38038,
        "name": "ZIYUAN 1-02C (ZY 1-02C)",
        "group": "resource",
        "lat": 80.93302353971957,
        "lon": -19.92663267860568,
        "alt_km": 755.4507039007458,
        "timestamp": "2025-12-08T08:59:00.428950+00:00",
        "meta_object_name": "ZIYUAN 1-02C (ZY 1-02C)",
        "meta_object_id": "2011-079A",
        "meta_epoch": "2025-12-07T23:21:48.685824",
        "meta_mean_motion": 14.38003619,
        "meta_eccentricity": 0.00070027,
        "meta_inclination": 98.4341,
        "meta_ra_of_asc_node": 48.075,
        "meta_arg_of_pericenter": 151.7314,
        "meta_mean_anomaly": 21.1945,
        "meta_ephemeris_type": 0,
        "meta_classification_type": "U",
        "meta_norad_cat_id": 38038,
        "meta_element_set_no": 999,
        "meta_rev_at_epoch": 73172,
        "meta_bstar": 0.00028968985,
        "meta_mean_motion_dot": 8.33e-06,
        "meta_mean_motion_ddot": 0,
        "tle_line1": "1 38038U 11079A   25341.97348016  .00000833  00000+0  28969-3 0  9993",
        "tle_line2": "2 38038  98.4341  48.0750 0007002 151.7314  21.1945 14.38003619731725"
      },
      "geometry": {
        "type": "Point",
        "coordinates": [
          -19.92663267860568,
          80.93302353971957
        ]
      }
    },
    {
      "type": "Feature",
      "properties": {
        "norad_id": 38046,
        "name": "ZIYUAN 3-1 (ZY 3-1)",
        "group": "resource",
        "lat": 0.39470059120483597,
        "lon": 48.64252562529205,
        "alt_km": 367.1684345683534,
        "timestamp": "2025-12-08T08:59:00.428982+00:00",
        "meta_object_name": "ZIYUAN 3-1 (ZY 3-1)",
        "meta_object_id": "2012-001A",
        "meta_epoch": "2025-12-07T22:15:29.754144",
        "meta_mean_motion": 15.67663122,
        "meta_eccentricity": 0.00019474,
        "meta_inclination": 97.1759,
        "meta_ra_of_asc_node": 48.2354,
        "meta_arg_of_pericenter": 12.3453,
        "meta_mean_anomaly": 347.7856,
        "meta_ephemeris_type": 0,
        "meta_classification_type": "U",
        "meta_norad_cat_id": 38046,
        "meta_element_set_no": 999,
        "meta_rev_at_epoch": 77421,
        "meta_bstar": 0.00080288414,
        "meta_mean_motion_dot": 0.00088224,
        "meta_mean_motion_ddot": 0,
        "tle_line1": "1 38046U 12001A   25341.92742771  .00088224  00000+0  80288-3 0  9991",
        "tle_line2": "2 38046  97.1759  48.2354 0001947  12.3453 347.7856 15.67663122774216"
      },
      "geometry": {
        "type": "Point",
        "coordinates": [
          48.64252562529205,
          0.39470059120483597
        ]
      }
    },
    {
      "type": "Feature",
      "properties": {
        "norad_id": 38338,
        "name": "ARIRANG-3 (KOMPSAT-3)",
        "group": "resource",
        "lat": 63.236466566399685,
        "lon": -79.96131488689205,
        "alt_km": 680.2240601630583,
        "timestamp": "2025-12-08T08:59:00.428996+00:00",
        "meta_object_name": "ARIRANG-3 (KOMPSAT-3)",
        "meta_object_id": "2012-025B",
        "meta_epoch": "2025-12-07T22:49:56.764416",
        "meta_mean_motion": 14.61702315,
        "meta_eccentricity": 0.00057001,
        "meta_inclination": 98.3317,
        "meta_ra_of_asc_node": 296.5048,
        "meta_arg_of_pericenter": 354.3163,
        "meta_mean_anomaly": 5.7972,
        "meta_ephemeris_type": 0,
        "meta_classification_type": "U",
        "meta_norad_cat_id": 38338,
        "meta_element_set_no": 999,
        "meta_rev_at_epoch": 72340,
        "meta_bstar": 0.00021412148,
        "meta_mean_motion_dot": 1.018e-05,
        "meta_mean_motion_ddot": 0,
        "tle_line1": "1 38338U 12025B   25341.95135144  .00001018  00000+0  21412-3 0  9994",
        "tle_line2": "2 38338  98.3317 296.5048 0005700 354.3163   5.7972 14.61702315723405"
      },
      "geometry": {
        "type": "Point",
        "coordinates": [
          -79.96131488689205,
          63.236466566399685
        ]
      }
    }
  ]
}